start=new Date('2022-06-21T00:00:00.000Z').valueOf();
sats=[{"OBJECT_TYPE":"PAYLOAD","EPHEMERIS_TYPE":"0","FILE":"3498404","MEAN_MOTION":"15.06404037","GP_ID":"206513826","SEMIMAJOR_AXIS":"6925.336","OBJECT_ID":"2021-005B","APOAPSIS":"548.423","PERIAPSIS":"545.980","SITE":"AFETR","TLE_LINE2":"2 47350  53.0555  37.0011 0001764  60.2971 299.8194 15.06404037 78398","CENTER_NAME":"EARTH","EPOCH":"2022-06-20T21:29:46.360608","MEAN_ELEMENT_THEORY":"SGP4","LAUNCH_DATE":"2021-01-20","NORAD_CAT_ID":"47350","RA_OF_ASC_NODE":"37.0011","MEAN_MOTION_DDOT":"0.0000000000000","INCLINATION":"53.0555","RCS_SIZE":"LARGE","PERIOD":"95.592","ELEMENT_SET_NO":"999","TIME_SYSTEM":"UTC","ARG_OF_PERICENTER":"60.2971","DECAY_DATE":null,"BSTAR":"0.00009899900000","COUNTRY_CODE":"US","REF_FRAME":"TEME","TLE_LINE1":"1 47350U 21005B   22171.89567547  .00001193  00000-0  98999-4 0  9993","REV_AT_EPOCH":"7839","MEAN_MOTION_DOT":"0.00001193","OBJECT_NAME":"STARLINK-2011","MEAN_ANOMALY":"299.8194","ECCENTRICITY":"0.00017640","CLASSIFICATION_TYPE":"U"},{"APOAPSIS":"548.348","SEMIMAJOR_AXIS":"6925.350","GP_ID":"206512589","OBJECT_ID":"2021-005C","PERIAPSIS":"546.082","TLE_LINE2":"2 47351  53.0555 357.4405 0001636  81.7846 278.3329 15.06399373 78930","CENTER_NAME":"EARTH","SITE":"AFETR","OBJECT_TYPE":"PAYLOAD","EPHEMERIS_TYPE":"0","FILE":"3498404","MEAN_MOTION":"15.06399373","LAUNCH_DATE":"2021-01-20","MEAN_MOTION_DDOT":"0.0000000000000","NORAD_CAT_ID":"47351","RA_OF_ASC_NODE":"357.4405","EPOCH":"2022-06-20T18:59:47.907744","MEAN_ELEMENT_THEORY":"SGP4","REF_FRAME":"TEME","BSTAR":"-0.00003880100000","COUNTRY_CODE":"US","TLE_LINE1":"1 47351U 21005C   22171.79152671 -.00000859  00000-0 -38801-4 0  9997","PERIOD":"95.592","ELEMENT_SET_NO":"999","INCLINATION":"53.0555","RCS_SIZE":"LARGE","DECAY_DATE":null,"TIME_SYSTEM":"UTC","ARG_OF_PERICENTER":"81.7846","ECCENTRICITY":"0.00016360","MEAN_ANOMALY":"278.3329","CLASSIFICATION_TYPE":"U","MEAN_MOTION_DOT":"-0.00000859","OBJECT_NAME":"STARLINK-2017","REV_AT_EPOCH":"7893"},{"TLE_LINE1":"1 47352U 21005D   22171.81090446 -.00000298  00000-0 -10874-5 0  9990","COUNTRY_CODE":"US","BSTAR":"-0.00000108740000","REF_FRAME":"TEME","ARG_OF_PERICENTER":"63.1926","TIME_SYSTEM":"UTC","DECAY_DATE":null,"RCS_SIZE":"LARGE","INCLINATION":"53.0552","ELEMENT_SET_NO":"999","PERIOD":"95.592","CLASSIFICATION_TYPE":"U","ECCENTRICITY":"0.00015950","MEAN_ANOMALY":"296.9226","REV_AT_EPOCH":"7837","OBJECT_NAME":"STARLINK-2034","MEAN_MOTION_DOT":"-0.00000298","TLE_LINE2":"2 47352  53.0552  37.3852 0001595  63.1926 296.9226 15.06396896 78372","CENTER_NAME":"EARTH","SITE":"AFETR","PERIAPSIS":"546.118","OBJECT_ID":"2021-005D","SEMIMAJOR_AXIS":"6925.358","GP_ID":"206512838","APOAPSIS":"548.328","MEAN_MOTION":"15.06396896","FILE":"3498404","EPHEMERIS_TYPE":"0","OBJECT_TYPE":"PAYLOAD","NORAD_CAT_ID":"47352","RA_OF_ASC_NODE":"37.3852","MEAN_MOTION_DDOT":"0.0000000000000","LAUNCH_DATE":"2021-01-20","EPOCH":"2022-06-20T19:27:42.145344","MEAN_ELEMENT_THEORY":"SGP4"},{"ELEMENT_SET_NO":"999","PERIOD":"95.593","RCS_SIZE":"LARGE","INCLINATION":"53.0552","DECAY_DATE":null,"ARG_OF_PERICENTER":"61.8444","TIME_SYSTEM":"UTC","REF_FRAME":"TEME","COUNTRY_CODE":"US","BSTAR":"0.00006249700000","TLE_LINE1":"1 47353U 21005E   22171.76621235  .00000649  00000-0  62497-4 0  9996","OBJECT_NAME":"STARLINK-2045","MEAN_MOTION_DOT":"0.00000649","REV_AT_EPOCH":"7914","CLASSIFICATION_TYPE":"U","ECCENTRICITY":"0.00015520","MEAN_ANOMALY":"298.2702","EPHEMERIS_TYPE":"0","OBJECT_TYPE":"PAYLOAD","MEAN_MOTION":"15.06382556","FILE":"3498404","APOAPSIS":"548.342","OBJECT_ID":"2021-005E","SEMIMAJOR_AXIS":"6925.402","GP_ID":"206513082","CENTER_NAME":"EARTH","TLE_LINE2":"2 47353  53.0552 342.5830 0001552  61.8444 298.2702 15.06382556 79141","SITE":"AFETR","PERIAPSIS":"546.192","MEAN_ELEMENT_THEORY":"SGP4","EPOCH":"2022-06-20T18:23:20.747040","LAUNCH_DATE":"2021-01-20","MEAN_MOTION_DDOT":"0.0000000000000","NORAD_CAT_ID":"47353","RA_OF_ASC_NODE":"342.5830"},{"SITE":"AFETR","TLE_LINE2":"2 47354  53.0548   2.5119 0001451  66.1305 293.9836 15.06399463 78865","CENTER_NAME":"EARTH","PERIAPSIS":"546.210","APOAPSIS":"548.220","OBJECT_ID":"2021-005F","SEMIMAJOR_AXIS":"6925.350","GP_ID":"206513326","MEAN_MOTION":"15.06399463","FILE":"3498404","EPHEMERIS_TYPE":"0","OBJECT_TYPE":"PAYLOAD","MEAN_MOTION_DDOT":"0.0000000000000","NORAD_CAT_ID":"47354","RA_OF_ASC_NODE":"2.5119","LAUNCH_DATE":"2021-01-20","EPOCH":"2022-06-20T18:41:54.742848","MEAN_ELEMENT_THEORY":"SGP4","TLE_LINE1":"1 47354U 21005F   22171.77910582  .00001016  00000-0  87075-4 0  9992","REF_FRAME":"TEME","COUNTRY_CODE":"US","BSTAR":"0.00008707500000","DECAY_DATE":null,"ARG_OF_PERICENTER":"66.1305","TIME_SYSTEM":"UTC","ELEMENT_SET_NO":"999","PERIOD":"95.592","RCS_SIZE":"LARGE","INCLINATION":"53.0548","CLASSIFICATION_TYPE":"U","ECCENTRICITY":"0.00014510","MEAN_ANOMALY":"293.9836","OBJECT_NAME":"STARLINK-2046","MEAN_MOTION_DOT":"0.00001016","REV_AT_EPOCH":"7886"},{"CLASSIFICATION_TYPE":"U","MEAN_ANOMALY":"279.9287","ECCENTRICITY":"0.00015400","OBJECT_NAME":"STARLINK-2047","MEAN_MOTION_DOT":"-0.00001164","REV_AT_EPOCH":"7907","REF_FRAME":"TEME","COUNTRY_CODE":"US","BSTAR":"-0.00005922300000","TLE_LINE1":"1 47355U 21005G   22171.80076232 -.00001164  00000-0 -59223-4 0  9992","ELEMENT_SET_NO":"999","PERIOD":"95.592","RCS_SIZE":"LARGE","INCLINATION":"53.0553","DECAY_DATE":null,"ARG_OF_PERICENTER":"80.1875","TIME_SYSTEM":"UTC","LAUNCH_DATE":"2021-01-20","MEAN_MOTION_DDOT":"0.0000000000000","NORAD_CAT_ID":"47355","RA_OF_ASC_NODE":"347.4197","MEAN_ELEMENT_THEORY":"SGP4","EPOCH":"2022-06-20T19:13:05.864448","APOAPSIS":"548.266","OBJECT_ID":"2021-005G","SEMIMAJOR_AXIS":"6925.335","GP_ID":"206512089","CENTER_NAME":"EARTH","TLE_LINE2":"2 47355  53.0553 347.4197 0001540  80.1875 279.9287 15.06404580 79071","SITE":"AFETR","PERIAPSIS":"546.133","EPHEMERIS_TYPE":"0","OBJECT_TYPE":"PAYLOAD","MEAN_MOTION":"15.06404580","FILE":"3498404"},{"MEAN_ELEMENT_THEORY":"SGP4","EPOCH":"2022-06-20T20:19:26.382432","LAUNCH_DATE":"2021-01-20","NORAD_CAT_ID":"47356","RA_OF_ASC_NODE":"7.2173","MEAN_MOTION_DDOT":"0.0000000000000","EPHEMERIS_TYPE":"0","OBJECT_TYPE":"PAYLOAD","FILE":"3498404","MEAN_MOTION":"15.06399631","OBJECT_ID":"2021-005H","GP_ID":"206512338","SEMIMAJOR_AXIS":"6925.350","APOAPSIS":"548.185","CENTER_NAME":"EARTH","TLE_LINE2":"2 47356  53.0553   7.2173 0001401  73.2151 286.8991 15.06399631 78802","SITE":"AFETR","PERIAPSIS":"546.244","REV_AT_EPOCH":"7880","OBJECT_NAME":"STARLINK-2049","MEAN_MOTION_DOT":"0.00000194","CLASSIFICATION_TYPE":"U","ECCENTRICITY":"0.00014010","MEAN_ANOMALY":"286.8991","RCS_SIZE":"LARGE","INCLINATION":"53.0553","ELEMENT_SET_NO":"999","PERIOD":"95.592","ARG_OF_PERICENTER":"73.2151","TIME_SYSTEM":"UTC","DECAY_DATE":null,"COUNTRY_CODE":"US","BSTAR":"0.00003195000000","REF_FRAME":"TEME","TLE_LINE1":"1 47356U 21005H   22171.84683313  .00000194  00000-0  31950-4 0  9998"},{"MEAN_MOTION_DDOT":"0.0000000000000","NORAD_CAT_ID":"47357","RA_OF_ASC_NODE":"36.8728","LAUNCH_DATE":"2021-01-20","EPOCH":"2022-06-20T22:06:55.656864","MEAN_ELEMENT_THEORY":"SGP4","SITE":"AFETR","TLE_LINE2":"2 47357  53.0559  36.8728 0001471  64.2400 295.8741 15.06394082 78399","CENTER_NAME":"EARTH","PERIAPSIS":"546.213","APOAPSIS":"548.250","OBJECT_ID":"2021-005J","GP_ID":"206513583","SEMIMAJOR_AXIS":"6925.367","MEAN_MOTION":"15.06394082","FILE":"3498404","EPHEMERIS_TYPE":"0","OBJECT_TYPE":"PAYLOAD","CLASSIFICATION_TYPE":"U","ECCENTRICITY":"0.00014710","MEAN_ANOMALY":"295.8741","OBJECT_NAME":"STARLINK-2050","MEAN_MOTION_DOT":"0.00000342","REV_AT_EPOCH":"7839","TLE_LINE1":"1 47357U 21005J   22171.92147751  .00000342  00000-0  41844-4 0  9997","REF_FRAME":"TEME","COUNTRY_CODE":"US","BSTAR":"0.00004184400000","DECAY_DATE":null,"ARG_OF_PERICENTER":"64.2400","TIME_SYSTEM":"UTC","ELEMENT_SET_NO":"999","PERIOD":"95.593","RCS_SIZE":"LARGE","INCLINATION":"53.0559"},{"OBJECT_ID":"2021-005K","SEMIMAJOR_AXIS":"6925.369","GP_ID":"206513827","APOAPSIS":"548.336","TLE_LINE2":"2 47358  53.0575   7.1617 0001591  68.2120 291.9038 15.06393179 78800","CENTER_NAME":"EARTH","SITE":"AFETR","PERIAPSIS":"546.133","EPHEMERIS_TYPE":"0","OBJECT_TYPE":"PAYLOAD","MEAN_MOTION":"15.06393179","FILE":"3498404","LAUNCH_DATE":"2021-01-20","RA_OF_ASC_NODE":"7.1617","NORAD_CAT_ID":"47358","MEAN_MOTION_DDOT":"0.0000000000000","EPOCH":"2022-06-20T20:34:00.588000","MEAN_ELEMENT_THEORY":"SGP4","COUNTRY_CODE":"US","BSTAR":"0.00011165000000","REF_FRAME":"TEME","TLE_LINE1":"1 47358U 21005K   22171.85695125  .00001382  00000-0  11165-3 0  9990","RCS_SIZE":"LARGE","INCLINATION":"53.0575","ELEMENT_SET_NO":"999","PERIOD":"95.593","ARG_OF_PERICENTER":"68.2120","TIME_SYSTEM":"UTC","DECAY_DATE":null,"CLASSIFICATION_TYPE":"U","ECCENTRICITY":"0.00015910","MEAN_ANOMALY":"291.9038","REV_AT_EPOCH":"7880","OBJECT_NAME":"STARLINK-2055","MEAN_MOTION_DOT":"0.00001382"},{"EPHEMERIS_TYPE":"0","OBJECT_TYPE":"PAYLOAD","FILE":"3498404","MEAN_MOTION":"15.06399641","OBJECT_ID":"2021-005L","GP_ID":"206512590","SEMIMAJOR_AXIS":"6925.350","APOAPSIS":"548.428","TLE_LINE2":"2 47359  53.0563  32.1096 0001752  66.5933 293.5240 15.06399641 78453","CENTER_NAME":"EARTH","SITE":"AFETR","PERIAPSIS":"546.001","EPOCH":"2022-06-20T20:50:38.067360","MEAN_ELEMENT_THEORY":"SGP4","LAUNCH_DATE":"2021-01-20","NORAD_CAT_ID":"47359","RA_OF_ASC_NODE":"32.1096","MEAN_MOTION_DDOT":"0.0000000000000","RCS_SIZE":"LARGE","INCLINATION":"53.0563","ELEMENT_SET_NO":"999","PERIOD":"95.592","ARG_OF_PERICENTER":"66.5933","TIME_SYSTEM":"UTC","DECAY_DATE":null,"COUNTRY_CODE":"US","BSTAR":"0.00010193000000","REF_FRAME":"TEME","TLE_LINE1":"1 47359U 21005L   22171.86849615  .00001237  00000-0  10193-3 0  9996","REV_AT_EPOCH":"7845","OBJECT_NAME":"STARLINK-2069","MEAN_MOTION_DOT":"0.00001237","CLASSIFICATION_TYPE":"U","ECCENTRICITY":"0.00017520","MEAN_ANOMALY":"293.5240"}];
